{"type": "FeatureCollection", "features": [ {"type": "Feature", "properties": {"norad_id": 34909, "name": "COSMOS 2251 DEB", "group": "cosmos-2251-debris", "lat": -72.82450578708118, "lon": 14.494202407064288, "alt_km": 610.8196071806833, "timestamp": "2025-12-09T16:56:36.969721+00:00", "meta": {"OBJECT_NAME": "COSMOS 2251 DEB", "OBJECT_ID": "1993-036ADE", "EPOCH": "2025-12-08T16:57:05.311872", "MEAN_MOTION": 14.77777338, "ECCENTRICITY": 0.0084799, "INCLINATION": 74.0146, "RA_OF_ASC_NODE": 84.5006, "ARG_OF_PERICENTER": 221.1994, "MEAN_ANOMALY": 138.2762, "EPHEMERIS_TYPE": 0, "CLASSIFICATION_TYPE": "U", "NORAD_CAT_ID": 34909, "ELEMENT_SET_NO": 999, "REV_AT_EPOCH": 66792, "BSTAR": 0.0010412976, "MEAN_MOTION_DOT": 7.909e-05, "MEAN_MOTION_DDOT": 0}, "tle": {"line1": "1 34909U 93036ADE 25342.70631148  .00007909  00000+0  10413-2 0  9997", "line2": "2 34909  74.0146  84.5006 0084799 221.1994 138.2762 14.77777338667920"}}, "geometry": {"type": "Point", "coordinates": [14.494202407064288, -72.82450578708118]}}, {"type": "Feature", "properties": {"norad_id": 34910, "name": "COSMOS 2251 DEB", "group": "cosmos-2251-debris", "lat": -31.591031794515573, "lon": 95.96883287523295, "alt_km": 1177.5549294771745, "timestamp": "2025-12-09T16:56:36.969736+00:00", "meta": {"OBJECT_NAME": "COSMOS 2251 DEB", "OBJECT_ID": "1993-036ADF", "EPOCH": "2025-12-04T03:27:09.174816", "MEAN_MOTION": 13.3765034, "ECCENTRICITY": 0.04679235, "INCLINATION": 73.8763, "RA_OF_ASC_NODE": 114.9889, "ARG_OF_PERICENTER": 235.2756, "MEAN_ANOMALY": 311.3517, "EPHEMERIS_TYPE": 0, "CLASSIFICATION_TYPE": "U", "NORAD_CAT_ID": 34910, "ELEMENT_SET_NO": 999, "REV_AT_EPOCH": 81409, "BSTAR": 0.0018660381, "MEAN_MOTION_DOT": 1.821e-05, "MEAN_MOTION_DDOT": 0}, "tle": {"line1": "1 34910U 93036ADF 25338.14385619  .00001821  00000+0  18660-2 0  9990", "line2": "2 34910  73.8763 114.9889 0467923 235.2756 311.3517 13.37650340814099"}}, "geometry": {"type": "Point", "coordinates": [95.96883287523295, -31.591031794515573]}}, {"type": "Feature", "properties": {"norad_id": 34911, "name": "COSMOS 2251 DEB", "group": "cosmos-2251-debris", "lat": -31.07037436939262, "lon": 80.45395620694521, "alt_km": 757.7142939507294, "timestamp": "2025-12-09T16:56:36.969748+00:00", "meta": {"OBJECT_NAME": "COSMOS 2251 DEB", "OBJECT_ID": "1993-036ADG", "EPOCH": "2025-12-09T11:50:36.728160", "MEAN_MOTION": 14.59364138, "ECCENTRICITY": 0.0083455, "INCLINATION": 74.0415, "RA_OF_ASC_NODE": 250.9305, "ARG_OF_PERICENTER": 17.1677, "MEAN_ANOMALY": 159.4854, "EPHEMERIS_TYPE": 0, "CLASSIFICATION_TYPE": "U", "NORAD_CAT_ID": 34911, "ELEMENT_SET_NO": 999, "REV_AT_EPOCH": 88539, "BSTAR": 0.00030402, "MEAN_MOTION_DOT": 1.479e-05, "MEAN_MOTION_DDOT": 0}, "tle": {"line1": "1 34911U 93036ADG 25343.49348065  .00001479  00000+0  30402-3 0  9997", "line2": "2 34911  74.0415 250.9305 0083455  17.1677 159.4854 14.59364138885392"}}, "geometry": {"type": "Point", "coordinates": [80.45395620694521, -31.07037436939262]}}, {"type": "Feature", "properties": {"norad_id": 34913, "name": "COSMOS 2251 DEB", "group": "cosmos-2251-debris", "lat": 51.27151482196788, "lon": 87.13420748387684, "alt_km": 770.314222952873, "timestamp": "2025-12-09T16:56:36.969758+00:00", "meta": {"OBJECT_NAME": "COSMOS 2251 DEB", "OBJECT_ID": "1993-036ADJ", "EPOCH": "2025-12-09T03:03:43.509888", "MEAN_MOTION": 14.34635486, "ECCENTRICITY": 0.00202101, "INCLINATION": 74.0282, "RA_OF_ASC_NODE": 289.1171, "ARG_OF_PERICENTER": 40.2127, "MEAN_ANOMALY": 339.2145, "EPHEMERIS_TYPE": 0, "CLASSIFICATION_TYPE": "U", "NORAD_CAT_ID": 34913, "ELEMENT_SET_NO": 999, "REV_AT_EPOCH": 65136, "BSTAR": 8.6960494e-05, "MEAN_MOTION_DOT": 2.2e-06, "MEAN_MOTION_DDOT": 0}, "tle": {"line1": "1 34913U 93036ADJ 25343.12758692  .00000220  00000+0  86960-4 0  9994", "line2": "2 34913  74.0282 289.1171 0020210  40.2127 339.2145 14.34635486651367"}}, "geometry": {"type": "Point", "coordinates": [87.13420748387684, 51.27151482196788]}}, {"type": "Feature", "properties": {"norad_id": 34918, "name": "COSMOS 2251 DEB", "group": "cosmos-2251-debris", "lat": -17.442181413196806, "lon": -45.72412444339308, "alt_km": 680.7114152985796, "timestamp": "2025-12-09T16:56:36.969768+00:00", "meta": {"OBJECT_NAME": "COSMOS 2251 DEB", "OBJECT_ID": "1993-036ADP", "EPOCH": "2025-12-02T07:49:20.078112", "MEAN_MOTION": 14.60858458, "ECCENTRICITY": 0.0034182, "INCLINATION": 74.0712, "RA_OF_ASC_NODE": 333.4916, "ARG_OF_PERICENTER": 302.4495, "MEAN_ANOMALY": 120.4085, "EPHEMERIS_TYPE": 0, "CLASSIFICATION_TYPE": "U", "NORAD_CAT_ID": 34918, "ELEMENT_SET_NO": 999, "REV_AT_EPOCH": 65184, "BSTAR": 0.0024749, "MEAN_MOTION_DOT": 0.00012194, "MEAN_MOTION_DDOT": 0}, "tle": {"line1": "1 34918U 93036ADP 25336.32592683  .00012194  00000+0  24749-2 0  9997", "line2": "2 34918  74.0712 333.4916 0034182 302.4495 120.4085 14.60858458651845"}}, "geometry": {"type": "Point", "coordinates": [-45.72412444339308, -17.442181413196806]}}, {"type": "Feature", "properties": {"norad_id": 34924, "name": "COSMOS 2251 DEB", "group": "cosmos-2251-debris", "lat": -8.562990493980958, "lon": 92.76644859552042, "alt_km": 735.0591688224822, "timestamp": "2025-12-09T16:56:36.969778+00:00", "meta": {"OBJECT_NAME": "COSMOS 2251 DEB", "OBJECT_ID": "1993-036ADV", "EPOCH": "2025-12-09T09:01:22.181088", "MEAN_MOTION": 14.59977739, "ECCENTRICITY": 0.0054684, "INCLINATION": 74.0406, "RA_OF_ASC_NODE": 95.8654, "ARG_OF_PERICENTER": 181.353, "MEAN_ANOMALY": 235.8383, "EPHEMERIS_TYPE": 0, "CLASSIFICATION_TYPE": "U", "NORAD_CAT_ID": 34924, "ELEMENT_SET_NO": 999, "REV_AT_EPOCH": 87674, "BSTAR": 0.0016182, "MEAN_MOTION_DOT": 7.905e-05, "MEAN_MOTION_DDOT": 0}, "tle": {"line1": "1 34924U 93036ADV 25343.37595117  .00007905  00000+0  16182-2 0  9998", "line2": "2 34924  74.0406  95.8654 0054684 181.3530 235.8383 14.59977739876745"}}, "geometry": {"type": "Point", "coordinates": [92.76644859552042, -8.562990493980958]}}, {"type": "Feature", "properties": {"norad_id": 34944, "name": "COSMOS 2251 DEB", "group": "cosmos-2251-debris", "lat": -54.217961847823084, "lon": 81.383189040187, "alt_km": 990.8603669140421, "timestamp": "2025-12-09T16:56:36.969789+00:00", "meta": {"OBJECT_NAME": "COSMOS 2251 DEB", "OBJECT_ID": "1993-036ADX", "EPOCH": "2025-12-07T09:30:46.029312", "MEAN_MOTION": 14.14167925, "ECCENTRICITY": 0.02195348, "INCLINATION": 73.7495, "RA_OF_ASC_NODE": 241.6775, "ARG_OF_PERICENTER": 90.2413, "MEAN_ANOMALY": 272.3884, "EPHEMERIS_TYPE": 0, "CLASSIFICATION_TYPE": "U", "NORAD_CAT_ID": 34944, "ELEMENT_SET_NO": 999, "REV_AT_EPOCH": 64007, "BSTAR": 0.00099492053, "MEAN_MOTION_DOT": 2.364e-05, "MEAN_MOTION_DDOT": 0}, "tle": {"line1": "1 34944U 93036ADX 25341.39636608  .00002364  00000+0  99492-3 0  9991", "line2": "2 34944  73.7495 241.6775 0219534  90.2413 272.3884 14.14167925640077"}}, "geometry": {"type": "Point", "coordinates": [81.383189040187, -54.217961847823084]}}, {"type": "Feature", "properties": {"norad_id": 34946, "name": "COSMOS 2251 DEB", "group": "cosmos-2251-debris", "lat": 5.125088835262239, "lon": 166.45373010897634, "alt_km": 665.7964959116816, "timestamp": "2025-12-09T16:56:36.969799+00:00", "meta": {"OBJECT_NAME": "COSMOS 2251 DEB", "OBJECT_ID": "1993-036ADZ", "EPOCH": "2025-12-09T06:17:52.783008", "MEAN_MOTION": 14.61967324, "ECCENTRICITY": 0.004878, "INCLINATION": 74.0235, "RA_OF_ASC_NODE": 348.7755, "ARG_OF_PERICENTER": 127.0931, "MEAN_ANOMALY": 233.4709, "EPHEMERIS_TYPE": 0, "CLASSIFICATION_TYPE": "U", "NORAD_CAT_ID": 34946, "ELEMENT_SET_NO": 999, "REV_AT_EPOCH": 88158, "BSTAR": 0.00083755, "MEAN_MOTION_DOT": 4.24e-05, "MEAN_MOTION_DDOT": 0}, "tle": {"line1": "1 34946U 93036ADZ 25343.26241647  .00004240  00000+0  83755-3 0  9996", "line2": "2 34946  74.0235 348.7755 0048780 127.0931 233.4709 14.61967324881589"}}, "geometry": {"type": "Point", "coordinates": [166.45373010897634, 5.125088835262239]}}, {"type": "Feature", "properties": {"norad_id": 34949, "name": "COSMOS 2251 DEB", "group": "cosmos-2251-debris", "lat": -55.03470044536921, "lon": 91.38963564936736, "alt_km": 611.7089877435128, "timestamp": "2025-12-09T16:56:36.969810+00:00", "meta": {"OBJECT_NAME": "COSMOS 2251 DEB", "OBJECT_ID": "1993-036AEC", "EPOCH": "2025-12-09T02:32:47.353632", "MEAN_MOTION": 14.73956165, "ECCENTRICITY": 0.00804327, "INCLINATION": 74.0182, "RA_OF_ASC_NODE": 116.7548, "ARG_OF_PERICENTER": 262.8128, "MEAN_ANOMALY": 96.3896, "EPHEMERIS_TYPE": 0, "CLASSIFICATION_TYPE": "U", "NORAD_CAT_ID": 34949, "ELEMENT_SET_NO": 999, "REV_AT_EPOCH": 88308, "BSTAR": 0.00070527608, "MEAN_MOTION_DOT": 4.845e-05, "MEAN_MOTION_DDOT": 0}, "tle": {"line1": "1 34949U 93036AEC 25343.10610363  .00004845  00000+0  70528-3 0  9992", "line2": "2 34949  74.0182 116.7548 0080432 262.8128  96.3896 14.73956165883086"}}, "geometry": {"type": "Point", "coordinates": [91.38963564936736, -55.03470044536921]}}, {"type": "Feature", "properties": {"norad_id": 34953, "name": "COSMOS 2251 DEB", "group": "cosmos-2251-debris", "lat": -28.07963919488889, "lon": 24.591037827610176, "alt_km": 646.7707670039172, "timestamp": "2025-12-09T16:56:36.969820+00:00", "meta": {"OBJECT_NAME": "COSMOS 2251 DEB", "OBJECT_ID": "1993-036AEG", "EPOCH": "2025-12-09T10:36:14.672736", "MEAN_MOTION": 14.68912359, "ECCENTRICITY": 0.0057868, "INCLINATION": 74.0931, "RA_OF_ASC_NODE": 33.8513, "ARG_OF_PERICENTER": 26.8876, "MEAN_ANOMALY": 348.2077, "EPHEMERIS_TYPE": 0, "CLASSIFICATION_TYPE": "U", "NORAD_CAT_ID": 34953, "ELEMENT_SET_NO": 999, "REV_AT_EPOCH": 88080, "BSTAR": 0.0011803, "MEAN_MOTION_DOT": 7.06e-05, "MEAN_MOTION_DDOT": 0}, "tle": {"line1": "1 34953U 93036AEG 25343.44183649  .00007060  00000+0  11803-2 0  9998", "line2": "2 34953  74.0931  33.8513 0057868  26.8876 348.2077 14.68912359880807"}}, "geometry": {"type": "Point", "coordinates": [24.591037827610176, -28.07963919488889]}}]}